[{"OBJECT_NAME":"SCS-01 C","OBJECT_ID":"2025-100C","EPOCH":"2026-03-09T21:59:59.204544","MEAN_MOTION":15.20980224,"ECCENTRICITY":0.00246678,"INCLINATION":97.3736,"RA_OF_ASC_NODE":143.8302,"ARG_OF_PERICENTER":335.341,"MEAN_ANOMALY":24.6645,"EPHEMERIS_TYPE":0,"CLASSIFICATION_TYPE":"U","NORAD_CAT_ID":63984,"ELEMENT_SET_NO":999,"REV_AT_EPOCH":4553,"BSTAR":0.00052394566,"MEAN_MOTION_DOT":0.00011645,"MEAN_MOTION_DDOT":0},{"OBJECT_NAME":"DELTA 1 DEB","OBJECT_ID":"1977-065DC","EPOCH":"2026-03-08T18:53:52.858176","MEAN_MOTION":13.67610044,"ECCENTRICITY":0.06541303,"INCLINATION":29.1038,"RA_OF_ASC_NODE":273.1071,"ARG_OF_PERICENTER":41.1554,"MEAN_ANOMALY":323.6515,"EPHEMERIS_TYPE":0,"CLASSIFICATION_TYPE":"U","NORAD_CAT_ID":10306,"ELEMENT_SET_NO":999,"REV_AT_EPOCH":37728,"BSTAR":0.00097809201,"MEAN_MOTION_DOT":3.989e-5,"MEAN_MOTION_DDOT":0}]
